# From MPC 75725
206P/Barnard-Boattini,e,33.6336,202.3468,189.4692,3.487365,0.1513414,0.55131222,2.6494,03/22.0/2021,2000,g 19.0,4.0
# From MPC 75725
207P/NEAT,e,10.1727,198.6336,272.7826,3.868053,0.1295584,0.75975233,224.4609,03/22.0/2021,2000,g 16.0,4.0
# From MPEC 2020-W26
208P/McMillan,e,4.4103,36.3499,310.4342,4.045885,0.1211111,0.37372304,208.5692,03/22.0/2021,2000,g 12.5,4.0
# From MPC 90771
209P/LINEAR,e,21.2569,62.7713,152.4724,2.960044,0.1935338,0.67310534,125.4807,03/22.0/2021,2000,g 17.0,2.0
# From MPC105242
210P/Christensen,e,10.2622,93.8332,345.9008,3.164687,0.1750684,0.83318938,60.9403,03/22.0/2021,2000,g 13.5,4.0
# From MPC 96868
211P/Hill,e,18.9216,117.1375,4.2149,3.546727,0.1475579,0.34324210,277.1323,03/22.0/2021,2000,g 12.5,4.0
# From MPEC 2021-F20
212P/NEAT,e,22.3237,98.4175,14.0880,3.884699,0.1287265,0.58889558,214.4502,03/22.0/2021,2000,g 17.0,2.0
# From MPC114608
213P/Van Ness,e,10.3828,311.3001,5.6329,3.347910,0.1608953,0.40822275,204.8936,03/22.0/2021,2000,g 10.5,4.0
# From MPC 92986
214P/LINEAR,e,15.1838,348.2531,190.2507,3.617310,0.1432601,0.48580839,280.7265,03/22.0/2021,2000,g 13.0,4.0
# From MPEC 2020-SI8
215P/NEAT,e,10.5813,56.6839,262.1408,4.327668,0.1094771,0.16685031,53.5760,03/22.0/2021,2000,g 11.0,4.0
# From MPC100284
216P/LINEAR,e,9.0568,359.8101,151.3468,3.868893,0.1295162,0.44623286,227.6143,03/22.0/2021,2000,g 13.0,4.0
# From MPC108598
217P/LINEAR,e,12.8646,125.4793,246.8418,3.950918,0.1255038,0.68865025,168.6345,03/22.0/2021,2000,g 12.0,4.0
# From MPEC 2020-K19
218P/LINEAR,e,2.7260,175.9669,59.7869,3.094514,0.1810570,0.62199507,30.6382,03/22.0/2021,2000,g 16.0,4.0
# From MPC100284
219P/LINEAR,e,11.5311,230.9765,107.4098,3.649980,0.1413411,0.35387265,210.4116,03/22.0/2021,2000,g 11.0,4.0
# From MPEC 2021-BE3
220P/McNaught,e,8.1288,150.1026,180.5277,3.115577,0.1792241,0.50174482,18.1694,03/22.0/2021,2000,g 15.0,4.0
# From MPEC 2021-F20
221P/LINEAR,e,11.4266,229.7065,40.0906,3.456537,0.1533707,0.49275608,318.4326,03/22.0/2021,2000,g 14.5,4.0
# From MPC 92277
222P/LINEAR,e,5.0967,6.7829,346.2411,2.899379,0.1996395,0.71458279,130.9167,03/22.0/2021,2000,g 20.0,4.0
# From MPEC 2020-HN5
223P/Skiff,e,27.0225,346.7707,37.8157,4.159137,0.1161982,0.41590825,91.1644,03/22.0/2021,2000,g 12.0,4.0
# From MPC 75727
224P/LINEAR-NEAT,e,13.3017,40.2237,16.7166,3.442656,0.1542992,0.40737492,274.0521,03/22.0/2021,2000,g 15.5,4.0
# From MPC 75727
225P/LINEAR,e,21.3585,14.1905,3.8665,3.650344,0.1413199,0.63797084,237.1484,03/22.0/2021,2000,g 18.0,4.0
# From MPC106349
226P/Pigott-LINEAR-Kowalski,e,44.0188,54.0022,341.0400,3.767537,0.1347776,0.52842258,223.7816,03/22.0/2021,2000,g 12.5,4.0
# From MPC102956
227P/Catalina-LINEAR,e,6.5122,48.6206,90.8311,3.559461,0.1467668,0.51030378,200.1135,03/22.0/2021,2000,g 16.5,2.0
# From MPEC 2020-L06
228P/LINEAR,e,7.9113,30.9800,115.2069,4.171564,0.1156793,0.17645057,43.6056,03/22.0/2021,2000,g 14.5,2.0
# From MPC106349
229P/Gibbs,e,26.0906,157.9067,223.9632,3.930129,0.1265010,0.37696156,177.1957,03/22.0/2021,2000,g 13.0,4.0
# From MPC110497
230P/LINEAR,e,15.4858,107.0200,313.4066,3.454788,0.1534872,0.54633583,304.4166,03/22.0/2021,2000,g 13.0,4.0
# From MPEC 2020-K19
231P/LINEAR-NEAT,e,12.3365,133.0124,43.2478,4.024846,0.1220619,0.24761380,78.6958,03/22.0/2021,2000,g 14.5,2.0
# From MPC112394
232P/Hill,e,14.6334,56.0160,53.4211,4.480264,0.1039319,0.33416915,74.4247,03/22.0/2021,2000,g 11.5,4.0
# From MPEC 2021-F20
233P/La Sagra,e,11.2835,74.9239,27.0483,3.030719,0.1868038,0.41182606,32.0093,03/22.0/2021,2000,g 15.0,4.0
# From MPC110497
234P/LINEAR,e,11.5297,179.5632,357.2784,3.801108,0.1329961,0.25460205,185.2554,03/22.0/2021,2000,g 12.0,4.0
# From MPC110497
235P/LINEAR,e,8.9207,203.5146,333.3838,3.970026,0.1245988,0.32223157,137.1809,03/22.0/2021,2000,g 12.0,4.0
# From MPC107688
236P/LINEAR,e,16.3359,245.6304,119.2192,3.730422,0.1367940,0.50882377,166.4883,03/22.0/2021,2000,g 14.0,4.0
# From MPC109593
237P/LINEAR,e,14.0171,245.3998,25.2083,3.512449,0.1497232,0.43456368,242.7095,03/22.0/2021,2000,g 14.5,2.0
# From MPC107688
238P/Read,e,1.2643,51.6389,324.5711,3.165134,0.1750314,0.25227911,282.7075,03/22.0/2021,2000,g 14.5,4.0
# From MPEC 2021-F20
239P/LINEAR,e,11.2976,255.9138,220.4510,4.470910,0.1042582,0.63018676,83.6480,03/22.0/2021,2000,g 17.5,2.0
# From MPC109593
240P/NEAT,e,23.5089,74.9160,351.9683,3.867066,0.1296080,0.44887364,134.9870,03/22.0/2021,2000,g 11.0,4.0
# From MPEC 2020-W26
241P/LINEAR,e,21.1066,305.4835,111.4167,4.916029,0.0904237,0.60994559,348.6271,03/22.0/2021,2000,g 13.5,4.0
# From MPC 81861
242P/Spahr,e,32.4886,180.4301,246.0763,5.481532,0.0767982,0.27805861,253.8103,03/22.0/2021,2000,g  8.0,4.0
# From MPC111774
243P/NEAT,e,7.6406,87.6455,283.5259,3.831190,0.1314327,0.36004572,123.3674,03/22.0/2021,2000,g 12.5,4.0
# From MPEC 2020-W26
244P/Scotti,e,2.2593,353.9903,92.9481,4.894833,0.0910117,0.19871502,305.0041,03/22.0/2021,2000,g  9.0,4.0
# From MPEC 2020-K19
245P/WISE,e,21.1977,316.6466,316.8619,4.043980,0.1211966,0.45731058,137.8361,03/22.0/2021,2000,g 14.0,4.0
# From MPEC 2021-BE3
246P/NEAT,e,15.9866,78.7475,176.3025,4.016416,0.1224464,0.28694593,3.3265,03/22.0/2021,2000,g 10.5,4.0
# From MPEC 2021-F20
247P/LINEAR,e,13.6531,54.0088,47.4802,3.969685,0.1246149,0.62424678,104.8511,03/22.0/2021,2000,g 16.5,2.0
# From MPC 75730
248P/Gibbs,e,6.3481,207.7639,209.8757,5.991530,0.0672044,0.63816109,249.8130,03/22.0/2021,2000,g 14.0,4.0
# From MPEC 2021-BE3
249P/LINEAR,e,8.3954,239.1709,65.6202,2.762393,0.2146722,0.82012473,56.9960,03/22.0/2021,2000,g 15.5,4.0
# From MPC110497
250P/Larson,e,13.1874,73.5540,46.1228,3.760180,0.1351734,0.40153150,154.9807,03/22.0/2021,2000,g 14.5,4.0
# From MPC104795
251P/LINEAR,e,23.3965,219.3866,31.2818,3.510560,0.1498440,0.50519152,201.4927,03/22.0/2021,2000,g 16.5,2.0
# From MPC102956
252P/LINEAR,e,10.4092,190.9474,343.3017,3.050288,0.1850089,0.67199235,339.4750,03/22.0/2021,2000,g 17.5,4.0
# From MPC112394
253P/PANSTARRS,e,4.9432,146.8816,230.6290,3.467087,0.1526711,0.41376698,160.1281,03/22.0/2021,2000,g 14.5,4.0
# From MPEC 2021-F20
254P/McNaught,e,32.5727,129.1748,219.5004,4.611983,0.0995113,0.31979885,17.2398,03/22.0/2021,2000,g 11.0,4.0
# From NK 2214
255P/Levy,e,13.5221,276.0544,185.7330,2.942676,0.1952498,0.71376286,255.8133,03/22.0/2021,2000,g  9.0,4.0
# From MPC 84027
256P/LINEAR,e,27.6294,81.3516,124.2727,4.637200,0.0987007,0.41813584,288.8926,03/22.0/2021,2000,g 14.0,2.0
# From MPEC 2020-W26
257P/Catalina,e,20.2235,207.7343,117.6481,3.761944,0.1350783,0.43048495,25.9726,03/22.0/2021,2000,g 11.5,4.0
# From MPC 79655
258P/PANSTARRS,e,6.7460,126.2488,26.0501,4.399737,0.1067982,0.20873761,29.4551,03/22.0/2021,2000,g 13.0,4.0
# From MPC106349
259P/Garradd,e,15.8898,51.4526,257.6216,2.730310,0.2184671,0.33855747,289.3528,03/22.0/2021,2000,g 15.5,4.0
# From MPEC 2020-SI8
260P/McNaught,e,15.0558,349.3402,18.4070,3.622711,0.1429399,0.60907065,79.8935,03/22.0/2021,2000,g 13.5,4.0
# From MPEC 2019-TG9
261P/Larson,e,6.0756,291.1607,67.1456,3.490074,0.1511653,0.42317733,97.0664,03/22.0/2021,2000,g 14.0,4.0
# From MPC 82322
262P/McNaught-Russell,e,29.2047,217.8898,171.0074,6.875019,0.0546756,0.81549348,165.8397,03/22.0/2021,2000,g 13.5,4.0
# From MPC 89018
263P/Gibbs,e,11.5403,105.7641,34.5063,3.051320,0.1849151,0.59160938,234.2094,03/22.0/2021,2000,g  9.0,4.0
# From MPC114608
264P/Larsen,e,25.1355,220.7145,346.7298,3.896404,0.1281469,0.37478330,76.2535,03/22.0/2021,2000,g 13.0,4.0
# From MPC 79870
265P/LINEAR,e,14.3650,342.9273,33.4247,4.251202,0.1124440,0.64739903,4.6052,03/22.0/2021,2000,g 14.5,4.0
# From MPEC 2019-TG9
266P/Christensen,e,3.4262,4.9981,97.8113,3.534542,0.1483216,0.33942334,49.9262,03/22.0/2021,2000,g 12.5,4.0
# From MPC114608
267P/LONEOS,e,6.1383,228.6332,114.1280,3.211936,0.1712197,0.61422425,166.6222,03/22.0/2021,2000,g 19.5,4.0
# From MPC 92277
268P/Bernardi,e,16.1502,127.5896,359.9536,4.545847,0.1016908,0.47364703,219.4330,03/22.0/2021,2000,g 14.0,4.0
# From MPC104795
269P/Jedicke,e,7.0718,241.7067,225.8945,7.077908,0.0523416,0.43041273,123.8084,03/22.0/2021,2000,g 10.0,4.0
# From MPC 88332
270P/Gehrels,e,2.9191,222.9743,209.8503,6.666653,0.0572588,0.46730547,162.9123,03/22.0/2021,2000,g  8.0,4.0
# From MPC 92277
271P/van Houten-Lemmon,e,6.8691,9.3057,36.4114,7.044679,0.0527123,0.39398203,148.1654,03/22.0/2021,2000,g 11.0,4.0
# From MPC 81862
272P/NEAT,e,18.0762,109.4664,27.9488,4.456169,0.1047759,0.45427079,309.4722,03/22.0/2021,2000,g 16.0,2.0
# From MPC 82723
273P/Pons-Gambart,e,136.7925,320.4011,20.3241,31.80034,0.0054961,0.97408765,0.0000,12/17.9196/2012,2000,g 11.5,4.0
# From MPC 88332
274P/Tombaugh-Tenagra,e,15.8175,81.3386,38.4929,4.372312,0.1078046,0.43894563,318.7567,03/22.0/2021,2000,g 13.0,4.0
# From MPC 81862
275P/Hermann,e,21.2755,348.7573,174.0743,5.772573,0.0710641,0.71239056,214.1568,03/22.0/2021,2000,g 17.0,4.0
# From MPEC 2020-K19
276P/Vorobjov,e,14.8126,211.4061,199.7663,5.316333,0.0804055,0.26721043,250.2428,03/22.0/2021,2000,g 11.5,4.0
# From MPEC 2021-F20
277P/LINEAR,e,16.7785,276.3451,152.3155,3.852681,0.1303345,0.50567626,10.6653,03/22.0/2021,2000,g 14.0,4.0
# From MPEC 2020-W26
278P/McNaught,e,6.6857,15.4199,238.0998,3.696357,0.1386894,0.43545261,26.4819,03/22.0/2021,2000,g 14.0,4.0
# From MPC100285
279P/La Sagra,e,5.0524,346.2317,5.7801,3.574544,0.1458388,0.39839812,249.3654,03/22.0/2021,2000,g 14.0,4.0
# From MPC 89013
280P/Larsen,e,11.7754,131.3927,104.7990,4.529285,0.1022491,0.41772170,271.4976,03/22.0/2021,2000,g 12.5,4.0
# From MPC 83145
281P/MOSS,e,4.7196,87.1757,26.7724,4.871210,0.0916746,0.17178756,297.4213,03/22.0/2021,2000,g 11.0,4.0
# From MPC xxxxx
282P/,e,5.8111,9.2947,217.6017,4.242795,0.1127784,0.18896628,335.5907,03/22.0/2021,2000,g 13.5,2.0
# From MPEC 2021-BE3
283P/Spacewatch,e,14.4546,161.1295,22.2565,4.139646,0.1170198,0.48494755,340.1028,03/22.0/2021,2000,g 16.0,2.0
# From MPEC 2020-K19
284P/McNaught,e,11.8602,144.2645,202.5268,3.679484,0.1396444,0.37619191,335.5702,03/22.0/2021,2000,g 13.0,4.0
# From MPC 85339
